[
    {
        "CCSDS_OMM_VERS": "3.0",
        "COMMENT": "GENERATED VIA SPACE-TRACK.ORG API",
        "CREATION_DATE": "2025-04-14T03:05:54",
        "ORIGINATOR": "18 SPCS",
        "OBJECT_NAME": "BEIDOU 7",
        "OBJECT_ID": "2010-068A",
        "CENTER_NAME": "EARTH",
        "REF_FRAME": "TEME",
        "TIME_SYSTEM": "UTC",
        "MEAN_ELEMENT_THEORY": "SGP4",
        "EPOCH": "2025-04-13T21:55:08.660352",
        "MEAN_MOTION": "1.00256304",
        "ECCENTRICITY": "0.00400900",
        "INCLINATION": "48.3257",
        "RA_OF_ASC_NODE": "277.1323",
        "ARG_OF_PERICENTER": "210.8417",
        "MEAN_ANOMALY": "149.5776",
        "EPHEMERIS_TYPE": "0",
        "CLASSIFICATION_TYPE": "U",
        "NORAD_CAT_ID": "37256",
        "ELEMENT_SET_NO": "999",
        "REV_AT_EPOCH": "5249",
        "BSTAR": "0.00000000000000",
        "MEAN_MOTION_DOT": "-0.00000200",
        "MEAN_MOTION_DDOT": "0.0000000000000",
        "SEMIMAJOR_AXIS": "42169.072",
        "PERIOD": "1436.319",
        "APOAPSIS": "35959.993",
        "PERIAPSIS": "35621.882",
        "OBJECT_TYPE": "PAYLOAD",
        "RCS_SIZE": "LARGE",
        "COUNTRY_CODE": "PRC",
        "LAUNCH_DATE": "2010-12-17",
        "SITE": "XSC",
        "DECAY_DATE": null,
        "FILE": "4701263",
        "GP_ID": "285535053",
        "TLE_LINE0": "0 BEIDOU 7",
        "TLE_LINE1": "1 37256U 10068A   25103.91329468 -.00000200  00000-0  00000-0 0  9994",
        "TLE_LINE2": "2 37256  48.3257 277.1323 0040090 210.8417 149.5776  1.00256304 52495"
    }
]